{
"type": "FeatureCollection",
"name": "municipio_rio",
"crs": { "type": "name", "properties": { "name": "urn:ogc:def:crs:EPSG::4674" } },
"features": [
{ "type": "Feature", "properties": { "code_muni": 3304557.0, "name_muni": "Rio De Janeiro", "code_state": 33.0, "abbrev_state": "RJ", "name_state": "Rio de Janeiro", "code_region": 3.0, "name_region": "Sudeste" }, "geometry": { "type": "MultiPolygon", "coordinates": [ [ [ [ -43.568834306, -23.081622025 ], [ -43.569183145, -23.081511252 ], [ -43.569092773, -23.081294964 ], [ -43.568812003, -23.08145468 ], [ -43.568834306, -23.081622025 ] ] ], [ [ [ -43.560937792, -23.079611933 ], [ -43.55947437, -23.081156782 ], [ -43.563786308, -23.081934104 ], [ -43.561375744, -23.078737275 ], [ -43.560937792, -23.079611933 ] ] ], [ [ [ -43.198697264, -23.073396305 ], [ -43.198322227, -23.074699786 ], [ -43.200476192, -23.073663429 ], [ -43.199799341, -23.07299814300001 ], [ -43.198697264, -23.073396305 ] ] ], [ [ [ -43.573613626, -23.072621539 ], [ -43.57312227, -23.073233835 ], [ -43.574240364, -23.073301285 ], [ -43.574303292, -23.072790546 ], [ -43.573613626, -23.072621539 ] ] ], [ [ [ -43.194482031, -23.067168367 ], [ -43.191097759, -23.070769537 ], [ -43.192784887, -23.07410208 ], [ -43.199103785, -23.07146861 ], [ -43.198151821, -23.069030023 ], [ -43.194482031, -23.067168367 ] ] ], [ [ [ -43.509484668, -23.065612692 ], [ -43.514411185, -23.06538439600001 ], [ -43.512334126, -23.061535522 ], [ -43.510702869, -23.061323725 ], [ -43.510830721, -23.062878938 ], [ -43.508266407, -23.063869145000012 ], [ -43.509484668, -23.065612692 ] ] ], [ [ [ -43.511043971, -23.060311802 ], [ -43.512150846, -23.061308401 ], [ -43.512727518, -23.061208908 ], [ -43.512324487, -23.060627858 ], [ -43.511043971, -23.060311802 ] ] ], [ [ [ -43.567509132, -23.06000517 ], [ -43.567662625, -23.059915004 ], [ -43.567566154, -23.059681423000018 ], [ -43.567416743, -23.05977544 ], [ -43.567509132, -23.06000517 ] ] ], [ [ [ -43.148248938, -23.059584229 ], [ -43.142853985, -23.06410213 ], [ -43.142328751, -23.065887141000012 ], [ -43.147821931, -23.064944325 ], [ -43.148180403, -23.060728829 ], [ -43.149908147, -23.059987181 ], [ -43.148248938, -23.059584229 ] ] ], [ [ [ -43.565734756, -23.058835081 ], [ -43.565820754, -23.058816548 ], [ -43.565794225, -23.058693994 ], [ -43.565705454, -23.058755419 ], [ -43.565734756, -23.058835081 ] ] ], [ [ [ -43.566142491, -23.058873114 ], [ -43.56585433, -23.058711707 ], [ -43.566061289, -23.059095547 ], [ -43.566532358, -23.059065486 ], [ -43.566142491, -23.058873114 ] ] ], [ [ [ -43.566033856, -23.058000433 ], [ -43.567114203, -23.059536176000012 ], [ -43.567518221, -23.059536024 ], [ -43.567364069, -23.058130757 ], [ -43.566033856, -23.058000433 ] ] ], [ [ [ -43.563506848, -23.059002411 ], [ -43.563983418, -23.058294636 ], [ -43.563444231, -23.05730635 ], [ -43.56294474, -23.058102082000012 ], [ -43.563506848, -23.059002411 ] ] ], [ [ [ -43.565136555, -23.058060957 ], [ -43.565851858, -23.056955205000012 ], [ -43.565552984, -23.055419767000011 ], [ -43.56488173, -23.056519136 ], [ -43.565136555, -23.058060957 ] ] ], [ [ [ -43.56321747, -23.054503334 ], [ -43.563912204, -23.054645287 ], [ -43.565172865, -23.053252866 ], [ -43.564255707, -23.053353049 ], [ -43.56321747, -23.054503334 ] ] ], [ [ [ -43.508179557, -23.052616664 ], [ -43.507741399, -23.053341817 ], [ -43.509372316, -23.054158631 ], [ -43.509511527, -23.05305887 ], [ -43.508179557, -23.052616664 ] ] ], [ [ [ -43.565772316, -23.051516884 ], [ -43.564469561, -23.052298537 ], [ -43.569491413, -23.050988643 ], [ -43.568906066, -23.050760216 ], [ -43.565772316, -23.051516884 ] ] ], [ [ [ -43.569354082, -23.05090142700001 ], [ -43.569599642, -23.05079102 ], [ -43.56906474, -23.05073772 ], [ -43.569190375, -23.050798635 ], [ -43.569354082, -23.05090142700001 ] ] ], [ [ [ -43.570527443, -23.049629537000012 ], [ -43.56947883, -23.049866615 ], [ -43.569207103, -23.05044472 ], [ -43.5703469, -23.05037542 ], [ -43.570527443, -23.049629537000012 ] ] ], [ [ [ -43.310018019, -23.047313315 ], [ -43.310543067, -23.047161408 ], [ -43.310747545, -23.046533748 ], [ -43.310074295, -23.046679575 ], [ -43.310018019, -23.047313315 ] ] ], [ [ [ -43.583009032, -23.045373755 ], [ -43.584087353, -23.045039792 ], [ -43.584605138, -23.044113029 ], [ -43.58361542, -23.044384491 ], [ -43.583009032, -23.045373755 ] ] ], [ [ [ -43.310191446, -23.044494125 ], [ -43.310470204, -23.044399593 ], [ -43.310227565, -23.044073536 ], [ -43.309987519, -23.044308063 ], [ -43.310191446, -23.044494125 ] ] ], [ [ [ -43.585633978, -23.04477331 ], [ -43.586840055, -23.044368128 ], [ -43.588328487, -23.042184045 ], [ -43.586483793, -23.042927154 ], [ -43.585633978, -23.04477331 ] ] ], [ [ [ -43.588591808, -23.042231608000012 ], [ -43.592514956, -23.042691582 ], [ -43.594172673, -23.042073337 ], [ -43.591659519, -23.041327558 ], [ -43.588591808, -23.042231608000012 ] ] ], [ [ [ -43.592880582, -23.041356512 ], [ -43.593339116, -23.041423890000011 ], [ -43.593457951, -23.041271221 ], [ -43.592971893, -23.041031787 ], [ -43.592880582, -23.041356512 ] ] ], [ [ [ -43.315699998, -23.037497492 ], [ -43.315897873, -23.037678021 ], [ -43.316773188, -23.037366307 ], [ -43.316358586, -23.03718664 ], [ -43.315699998, -23.037497492 ] ] ], [ [ [ -43.303864849, -23.036555665 ], [ -43.302593708, -23.0384381 ], [ -43.307944639, -23.038709139 ], [ -43.306743752, -23.03741215 ], [ -43.303864849, -23.036555665 ] ] ], [ [ [ -43.577979503, -23.042681358 ], [ -43.577658074, -23.043980613 ], [ -43.579206475, -23.044476057 ], [ -43.58144707, -23.039056992 ], [ -43.588304948, -23.03565273200001 ], [ -43.584896537, -23.035744352 ], [ -43.579678482, -23.039997384 ], [ -43.577979503, -23.042681358 ] ] ], [ [ [ -43.200132449, -23.0375581 ], [ -43.205724827, -23.040134684000012 ], [ -43.20826787, -23.039866039 ], [ -43.207359137, -23.037832994 ], [ -43.200579139, -23.036559725 ], [ -43.196949601, -23.034511965 ], [ -43.200132449, -23.0375581 ] ] ], [ [ [ -43.304804105, -23.033950443 ], [ -43.304774808, -23.034116547 ], [ -43.304992592, -23.034081116 ], [ -43.304886328, -23.033853295 ], [ -43.304804105, -23.033950443 ] ] ], [ [ [ -43.469069089, -23.03407793500001 ], [ -43.467531221, -23.037132067 ], [ -43.47092409, -23.03776665 ], [ -43.470320547, -23.036852276 ], [ -43.472017132, -23.035540221 ], [ -43.4708777, -23.033932638 ], [ -43.469069089, -23.03407793500001 ] ] ], [ [ [ -43.305674439, -23.03324107700001 ], [ -43.305244831, -23.033367758 ], [ -43.305541497, -23.033728168 ], [ -43.305778415, -23.033365674 ], [ -43.305674439, -23.03324107700001 ] ] ], [ [ [ -43.195552012, -23.033909465 ], [ -43.196248562, -23.033948147 ], [ -43.194627251, -23.032595562 ], [ -43.194712666, -23.033140575 ], [ -43.195552012, -23.033909465 ] ] ], [ [ [ -43.299393927, -23.031203981 ], [ -43.298095966, -23.033684565 ], [ -43.299314819, -23.034245313 ], [ -43.301351053, -23.033152016 ], [ -43.301099711, -23.031572594 ], [ -43.299393927, -23.031203981 ] ] ], [ [ [ -43.19311747, -23.031731053 ], [ -43.193754288, -23.031703382 ], [ -43.192631549, -23.03121455 ], [ -43.192747452, -23.031674518 ], [ -43.19311747, -23.031731053 ] ] ], [ [ [ -43.607398488, -23.032953345 ], [ -43.604994826, -23.034748067 ], [ -43.602989223, -23.03950663800001 ], [ -43.593016896, -23.04291777 ], [ -43.58863012, -23.04299567 ], [ -43.586140603, -23.045603162 ], [ -43.577934963, -23.04766591 ], [ -43.567557545, -23.053976123 ], [ -43.565998589, -23.056082098000012 ], [ -43.565933694, -23.057537833 ], [ -43.567502034, -23.058052756 ], [ -43.568329647, -23.059610997 ], [ -43.566395414, -23.061527598 ], [ -43.566957809, -23.063004281 ], [ -43.580679777, -23.054999888 ], [ -43.606076745, -23.050510659 ], [ -43.630362986, -23.050265132 ], [ -43.66779709, -23.053058915000015 ], [ -43.666638273, -23.04257268 ], [ -43.663703729, -23.040743421 ], [ -43.630929692, -23.033692843 ], [ -43.619528254, -23.032907067 ], [ -43.614574106, -23.030991897 ], [ -43.607398488, -23.032953345 ] ] ], [ [ [ -43.604536492, -23.030701649 ], [ -43.605292847, -23.033155896 ], [ -43.611768741, -23.030475909 ], [ -43.60957704, -23.029516213 ], [ -43.604536492, -23.030701649 ] ] ], [ [ [ -43.191846443, -23.029192627 ], [ -43.191209947, -23.029983027 ], [ -43.192579022, -23.030212677 ], [ -43.19259113, -23.029129803 ], [ -43.191846443, -23.029192627 ] ] ], [ [ [ -43.275263756, -23.02962819 ], [ -43.27596645, -23.030671954 ], [ -43.278428772, -23.030182875 ], [ -43.276181909, -23.028865531 ], [ -43.275263756, -23.02962819 ] ] ], [ [ [ -43.599183077, -23.028168522 ], [ -43.593603118, -23.033854941 ], [ -43.586684679, -23.037699732 ], [ -43.581412619, -23.039798668 ], [ -43.578480499, -23.046090163 ], [ -43.581886622, -23.045542016 ], [ -43.585828342, -23.042358116 ], [ -43.589650228, -23.040656045 ], [ -43.60227779400001, -23.039044001 ], [ -43.604021732, -23.029100306 ], [ -43.60261468, -23.029007630000017 ], [ -43.600090211, -23.027601771 ], [ -43.599183077, -23.028168522 ] ] ], [ [ [ -43.60265301, -23.028912642 ], [ -43.604469651, -23.027071895 ], [ -43.602471699, -23.02628261000001 ], [ -43.600128971, -23.027347032 ], [ -43.60265301, -23.028912642 ] ] ], [ [ [ -43.203012275, -23.025329917 ], [ -43.200692473, -23.026823314 ], [ -43.203795545, -23.02726765 ], [ -43.206322342, -23.026097272 ], [ -43.203012275, -23.025329917 ] ] ], [ [ [ -43.191218164, -23.025324033 ], [ -43.190058723, -23.027019165 ], [ -43.195257123, -23.027368359 ], [ -43.193332089, -23.025823 ], [ -43.191218164, -23.025324033 ] ] ], [ [ [ -43.182507656, -23.02233327 ], [ -43.182037374, -23.023437431 ], [ -43.182284399, -23.023794809000012 ], [ -43.18380049, -23.021727513 ], [ -43.182507656, -23.02233327 ] ] ], [ [ [ -43.652942626, -23.003359478 ], [ -43.652766685, -23.002961843 ], [ -43.652431143, -23.002991789 ], [ -43.652408013, -23.00312532 ], [ -43.652942626, -23.003359478 ] ] ], [ [ [ -43.650578876, -23.002605109 ], [ -43.650786076, -23.002599305 ], [ -43.650323732, -23.002224459 ], [ -43.650241837, -23.00251140300001 ], [ -43.650578876, -23.002605109 ] ] ], [ [ [ -43.660477751, -22.999583688 ], [ -43.660579067, -22.999902573 ], [ -43.660994458, -22.999866882 ], [ -43.66073156, -22.999505849 ], [ -43.660477751, -22.999583688 ] ] ], [ [ [ -43.659772954, -22.998214873 ], [ -43.660673257, -22.998969411 ], [ -43.66141106, -22.998863838000013 ], [ -43.661238631, -22.998401887 ], [ -43.659772954, -22.998214873 ] ] ], [ [ [ -43.69523506, -22.986267877 ], [ -43.695262598, -22.9863552 ], [ -43.696235621, -22.986698857 ], [ -43.695884307, -22.986242164 ], [ -43.69523506, -22.986267877 ] ] ], [ [ [ -43.702879378, -22.985225139 ], [ -43.70587984, -22.986738188 ], [ -43.707288134, -22.986733167 ], [ -43.70589598, -22.985935644 ], [ -43.702879378, -22.985225139 ] ] ], [ [ [ -43.147250218, -22.961845964 ], [ -43.148734671, -22.965562049 ], [ -43.151430079, -22.966739261 ], [ -43.149374132, -22.965159073000013 ], [ -43.150934673, -22.964570329 ], [ -43.150723027, -22.963107983000015 ], [ -43.147250218, -22.961845964 ] ] ], [ [ [ -43.148468993, -22.935485652 ], [ -43.148478511, -22.935310288000014 ], [ -43.147916778, -22.935062595 ], [ -43.147897738, -22.935235767 ], [ -43.148468993, -22.935485652 ] ] ], [ [ [ -43.146039397, -22.93435782200001 ], [ -43.146560661, -22.934844454 ], [ -43.147309826, -22.934939848 ], [ -43.147296138, -22.934469611 ], [ -43.146039397, -22.93435782200001 ] ] ], [ [ [ -43.785396659, -22.928865381000016 ], [ -43.786887738, -22.926431168 ], [ -43.783520411, -22.925576021 ], [ -43.78387784600001, -22.927971206 ], [ -43.785396659, -22.928865381000016 ] ] ], [ [ [ -43.158859717, -22.912605768 ], [ -43.157812447, -22.912626363 ], [ -43.158686544, -22.914220756000013 ], [ -43.161366245, -22.916422773 ], [ -43.160633571, -22.912949652 ], [ -43.158859717, -22.912605768 ] ] ], [ [ [ -43.166705081, -22.897304804000012 ], [ -43.16699491, -22.896882147 ], [ -43.16570413, -22.896818459 ], [ -43.165853082, -22.897016892 ], [ -43.166705081, -22.897304804000012 ] ] ], [ [ [ -43.171495617, -22.894183664 ], [ -43.16734315, -22.895497397 ], [ -43.168172575, -22.897519163 ], [ -43.171744728, -22.897721732 ], [ -43.171346262, -22.898661023 ], [ -43.174959094, -22.89751990200001 ], [ -43.17589111, -22.895564249 ], [ -43.174717757, -22.89314796 ], [ -43.171495617, -22.894183664 ] ] ], [ [ [ -43.195844119, -22.887092631 ], [ -43.19564325, -22.887497193 ], [ -43.197659248, -22.888109635 ], [ -43.197791316999989, -22.887714803 ], [ -43.195844119, -22.887092631 ] ] ], [ [ [ -43.209218184, -22.886417934 ], [ -43.207361765, -22.889039461 ], [ -43.209106003, -22.891952228 ], [ -43.208662622, -22.889505599 ], [ -43.211093397, -22.887225188 ], [ -43.209218184, -22.886417934 ] ] ], [ [ [ -43.174228354, -22.882897318 ], [ -43.173042976, -22.88385636 ], [ -43.176898097, -22.884303642 ], [ -43.176091811, -22.88304134 ], [ -43.174228354, -22.882897318 ] ] ], [ [ [ -43.172983694, -22.838418097 ], [ -43.174530439, -22.838975112 ], [ -43.175704403, -22.836589913 ], [ -43.174503965, -22.836836068 ], [ -43.172983694, -22.838418097 ] ] ], [ [ [ -43.230611562999989, -22.836826524 ], [ -43.227682711, -22.837060063 ], [ -43.225401164, -22.839616463 ], [ -43.223747761, -22.839277326 ], [ -43.219839915, -22.844803932 ], [ -43.221924012, -22.848756281000011 ], [ -43.224162325, -22.846597429 ], [ -43.22229426, -22.843789462 ], [ -43.223874044, -22.841897064 ], [ -43.226201786, -22.841495708000014 ], [ -43.231329365, -22.844085422 ], [ -43.232374027, -22.847451464 ], [ -43.227767695, -22.855070653 ], [ -43.22250072100001, -22.858872206 ], [ -43.218102285, -22.858869689 ], [ -43.215217629, -22.857173948 ], [ -43.212465119, -22.858526886 ], [ -43.208387402, -22.858358554 ], [ -43.209006162, -22.860364519 ], [ -43.214473327, -22.859688303 ], [ -43.21951127, -22.861766245 ], [ -43.21804995, -22.86338324 ], [ -43.216673359, -22.861762924 ], [ -43.215122317, -22.863670017 ], [ -43.214098795, -22.86782692 ], [ -43.215665201, -22.870530776 ], [ -43.220009085, -22.869640574 ], [ -43.221945917, -22.87074298 ], [ -43.227701949, -22.866995343 ], [ -43.231715662, -22.866433383 ], [ -43.232461976, -22.863067270000013 ], [ -43.236238821, -22.861133626 ], [ -43.236499664, -22.853948412 ], [ -43.240999313, -22.84657476100001 ], [ -43.239969648, -22.84232470500001 ], [ -43.243129684, -22.83985194700001 ], [ -43.24315504, -22.838244223 ], [ -43.241653869, -22.836937098 ], [ -43.238801757, -22.839000111 ], [ -43.236218189, -22.839110484 ], [ -43.232296245, -22.838614289 ], [ -43.231762732999989, -22.836148424 ], [ -43.230611562999989, -22.836826524 ] ] ], [ [ [ -43.167125476, -22.829245093 ], [ -43.167386531, -22.829345781 ], [ -43.167603762, -22.829244764 ], [ -43.167193161, -22.829131936 ], [ -43.167125476, -22.829245093 ] ] ], [ [ [ -43.254495159, -22.825462731 ], [ -43.254170091, -22.825598633999988 ], [ -43.254166278, -22.825763416000012 ], [ -43.254262109, -22.82576129700001 ], [ -43.254495159, -22.825462731 ] ] ], [ [ [ -43.258332505, -22.824537831 ], [ -43.257486831, -22.826107944 ], [ -43.259203576, -22.826619001 ], [ -43.259922078, -22.825091083 ], [ -43.258332505, -22.824537831 ] ] ], [ [ [ -43.255270204, -22.824199239 ], [ -43.254618113, -22.824632511 ], [ -43.254661498, -22.825319453 ], [ -43.255510291, -22.82461248 ], [ -43.255270204, -22.824199239 ] ] ], [ [ [ -43.162725695, -22.819395315 ], [ -43.162478701, -22.819711319 ], [ -43.162764505, -22.820055673 ], [ -43.162624989, -22.820148012 ], [ -43.162787087, -22.820319272 ], [ -43.162725695, -22.819395315 ] ] ], [ [ [ -43.162228612, -22.811163616 ], [ -43.160698882, -22.81459428 ], [ -43.161662644, -22.815131694 ], [ -43.16526291, -22.813091781 ], [ -43.162228612, -22.811163616 ] ] ], [ [ [ -43.123288637, -22.807045472 ], [ -43.124255816, -22.805978211 ], [ -43.122563446, -22.8044531 ], [ -43.122245391, -22.804931307 ], [ -43.123288637, -22.807045472 ] ] ], [ [ [ -43.117075726, -22.803662053000011 ], [ -43.11786322, -22.804431017 ], [ -43.119614235, -22.803847345 ], [ -43.117909543, -22.802439121 ], [ -43.117075726, -22.803662053000011 ] ] ], [ [ [ -43.109185796, -22.801602763 ], [ -43.110323043, -22.801856183 ], [ -43.111966776, -22.803190735000012 ], [ -43.109214197, -22.800010713 ], [ -43.10813145, -22.800840835 ], [ -43.109185796, -22.801602763 ] ] ], [ [ [ -43.305049781, -22.800804625000012 ], [ -43.30305029, -22.803739748 ], [ -43.300498851, -22.803963835 ], [ -43.299207883, -22.806578372 ], [ -43.295731985, -22.806375460000012 ], [ -43.290173681, -22.810407794 ], [ -43.28847638, -22.810373082 ], [ -43.289045376, -22.807909463 ], [ -43.278667552, -22.807374144 ], [ -43.272831206, -22.809829053000012 ], [ -43.264796763, -22.826469684 ], [ -43.253908514, -22.837321916 ], [ -43.24323604, -22.842255695 ], [ -43.236529638, -22.862028195000015 ], [ -43.233651821, -22.86371881 ], [ -43.232437511, -22.869207198 ], [ -43.230016122, -22.867787522 ], [ -43.226209638, -22.869153497 ], [ -43.226667053, -22.874124900000012 ], [ -43.224729765, -22.875301145000012 ], [ -43.224116014, -22.873672455 ], [ -43.222623254, -22.873118897 ], [ -43.221579815, -22.874347841 ], [ -43.221387726, -22.872908504 ], [ -43.218883459, -22.872105063 ], [ -43.218188503, -22.873411547 ], [ -43.219745978, -22.875370871 ], [ -43.217017007, -22.875799447 ], [ -43.216536446, -22.873554341 ], [ -43.212732017, -22.87282093100001 ], [ -43.213808768, -22.871169076000015 ], [ -43.209918786, -22.866999101000019 ], [ -43.204432148, -22.871705391 ], [ -43.201385748, -22.871460886000012 ], [ -43.215972408, -22.88634385 ], [ -43.210843739, -22.897606424 ], [ -43.195886185, -22.892037349 ], [ -43.190783015, -22.892113884 ], [ -43.180829174, -22.895476112 ], [ -43.179066196, -22.892280556 ], [ -43.179527314, -22.89563682 ], [ -43.177023756, -22.895876512 ], [ -43.173346635, -22.902080707 ], [ -43.169241695, -22.904559612 ], [ -43.16178975, -22.90478451 ], [ -43.161642039, -22.916789623 ], [ -43.165665272, -22.915623074 ], [ -43.167216601, -22.917690908 ], [ -43.16605519, -22.915430241 ], [ -43.169298286, -22.914283637 ], [ -43.172709941, -22.916606727000016 ], [ -43.17161306, -22.919775966 ], [ -43.169420398, -22.919128788 ], [ -43.16956839, -22.916762442 ], [ -43.16755717, -22.919146306 ], [ -43.171269155, -22.932407590000011 ], [ -43.171116417, -22.935126694 ], [ -43.169163796, -22.935815787 ], [ -43.168634093, -22.938715913 ], [ -43.174255255, -22.944192524 ], [ -43.178661511, -22.943023268 ], [ -43.180377887, -22.94793455 ], [ -43.169995218, -22.952310577 ], [ -43.165136065, -22.947711131 ], [ -43.163221335, -22.947737477 ], [ -43.16384924, -22.945938151 ], [ -43.161985557, -22.943375113 ], [ -43.158058887, -22.943449168 ], [ -43.157747655, -22.941161238 ], [ -43.152178491, -22.938572967 ], [ -43.151140773, -22.940650384000012 ], [ -43.154527405, -22.941996875000012 ], [ -43.155794441, -22.944180911 ], [ -43.154943475, -22.947024811 ], [ -43.150985468, -22.948922179 ], [ -43.150235009, -22.950928642 ], [ -43.156595266, -22.953304945 ], [ -43.160940189, -22.952836 ], [ -43.164440948, -22.954723484 ], [ -43.164336631, -22.95640954400001 ], [ -43.15968059, -22.957688151 ], [ -43.160447904, -22.96111156500001 ], [ -43.158677436, -22.963100251 ], [ -43.159595999, -22.96441453 ], [ -43.162548464, -22.965274002 ], [ -43.164773215, -22.963595505 ], [ -43.167197291, -22.963892643 ], [ -43.17692875, -22.968358511000012 ], [ -43.185295903, -22.974224871 ], [ -43.188365081, -22.978469858 ], [ -43.189264993, -22.983634844 ], [ -43.188157682, -22.985786918 ], [ -43.183523692, -22.986014907000012 ], [ -43.189216918, -22.988208939999989 ], [ -43.190115601, -22.990696446 ], [ -43.195246555, -22.988433231 ], [ -43.207082324, -22.987228125 ], [ -43.219671936, -22.987136896 ], [ -43.22666805, -22.988536951 ], [ -43.226956792, -22.990183692000013 ], [ -43.231713487, -22.991439843 ], [ -43.233144727, -22.993603846000013 ], [ -43.231843013, -22.995166264 ], [ -43.23396829, -22.995168474 ], [ -43.240781456, -23.000415086 ], [ -43.245650631, -23.00104105 ], [ -43.252069789, -22.999110981000012 ], [ -43.274726913, -23.002276972 ], [ -43.277199108, -23.005707394000012 ], [ -43.281585002, -23.00626638100001 ], [ -43.286907844, -23.009893765 ], [ -43.285501141, -23.014996529 ], [ -43.286432677, -23.016449786 ], [ -43.287384508, -23.014842432 ], [ -43.296319625, -23.016809801 ], [ -43.296873325999989, -23.015883909 ], [ -43.307055696, -23.016000267 ], [ -43.335942479, -23.011363031999988 ], [ -43.35760481, -23.011121429 ], [ -43.398683789, -23.014349108 ], [ -43.445596384, -23.0229183 ], [ -43.466304524, -23.029191234 ], [ -43.47069816, -23.033250539 ], [ -43.477590754, -23.031734978 ], [ -43.492800937, -23.035318146 ], [ -43.497525013, -23.037821906 ], [ -43.498245242, -23.037133396 ], [ -43.500101083, -23.040910917 ], [ -43.503029975, -23.040121453 ], [ -43.507065238, -23.042489385 ], [ -43.506836521, -23.045670072 ], [ -43.508535184, -23.047573829 ], [ -43.534386641, -23.050291659 ], [ -43.536365209, -23.052075948 ], [ -43.534965261, -23.053556451 ], [ -43.536880582, -23.056056323 ], [ -43.539856627, -23.056355653 ], [ -43.542098449, -23.059118584 ], [ -43.545382098, -23.058811084 ], [ -43.548931811, -23.060707565000012 ], [ -43.550052141, -23.063095452 ], [ -43.547743758, -23.064633435 ], [ -43.551707989, -23.066423152999988 ], [ -43.551297851, -23.06885076 ], [ -43.552799429, -23.071519911 ], [ -43.548822371, -23.073317407 ], [ -43.55183269, -23.076182621 ], [ -43.553686604, -23.076060519 ], [ -43.554136807, -23.072643297 ], [ -43.564614079, -23.07552865300001 ], [ -43.566422645, -23.075156773 ], [ -43.566821379, -23.073575157 ], [ -43.572456365, -23.073139266 ], [ -43.56772328, -23.071457727 ], [ -43.569088984, -23.066293447 ], [ -43.561598577, -23.058151114 ], [ -43.562825694, -23.056886251 ], [ -43.562373013, -23.053156352 ], [ -43.564414309, -23.051316913 ], [ -43.568596243, -23.050655095 ], [ -43.569026454, -23.050441443 ], [ -43.569366484, -23.049912988 ], [ -43.569787075, -23.049624393 ], [ -43.571844491, -23.048996801 ], [ -43.573546088, -23.04724263 ], [ -43.578074532, -23.04560808 ], [ -43.577171289, -23.043649953 ], [ -43.579657713, -23.039631524 ], [ -43.58537951, -23.035192793 ], [ -43.589413211, -23.035058366 ], [ -43.594257336, -23.032394863 ], [ -43.599564046, -23.022883566 ], [ -43.607288088, -23.0215753 ], [ -43.614102664, -23.017630141 ], [ -43.622915886, -23.007870206 ], [ -43.624269613, -23.00854303800001 ], [ -43.63218792, -23.005603299 ], [ -43.638563629, -23.006245773 ], [ -43.643225513, -23.00111725 ], [ -43.646030145, -23.00201646 ], [ -43.647939824, -23.00089949 ], [ -43.653200394, -23.002775059 ], [ -43.652630189, -23.000622838 ], [ -43.654227315, -23.000041397 ], [ -43.658972058, -22.991643801 ], [ -43.665929589, -22.985325755 ], [ -43.674279061, -22.98030944 ], [ -43.679829015, -22.98087194 ], [ -43.687475832, -22.985996782 ], [ -43.68947541, -22.991902713 ], [ -43.695828466, -22.984610442 ], [ -43.700603205, -22.98570352 ], [ -43.704475525, -22.977910214 ], [ -43.710963745, -22.97057898 ], [ -43.714144906, -22.969038373000011 ], [ -43.719635301, -22.973022223 ], [ -43.718518695, -22.972002145 ], [ -43.720216633, -22.970897699 ], [ -43.717859604, -22.969585828 ], [ -43.718702354, -22.966696331000012 ], [ -43.724652864, -22.960703145 ], [ -43.731584543, -22.957910212 ], [ -43.745253065, -22.946500505 ], [ -43.765627056, -22.936288886 ], [ -43.768395014, -22.932639753 ], [ -43.774044061, -22.932760082 ], [ -43.781018205, -22.92827942 ], [ -43.780936949, -22.927005738 ], [ -43.784327854, -22.92427106 ], [ -43.789964204, -22.925703302 ], [ -43.796101924, -22.91911296 ], [ -43.796025751, -22.91707533400001 ], [ -43.790747065, -22.914329251 ], [ -43.792249608, -22.908312747 ], [ -43.795355625, -22.906730865000014 ], [ -43.794807504, -22.903531402 ], [ -43.789820516, -22.903560336 ], [ -43.788347871, -22.900608066000014 ], [ -43.784687401, -22.903976682 ], [ -43.78432095, -22.900085406 ], [ -43.781679548, -22.899295459000012 ], [ -43.780211268, -22.894701829 ], [ -43.778275067, -22.896182139 ], [ -43.775155899, -22.895801348 ], [ -43.774599444, -22.892720076 ], [ -43.773047478, -22.892502191 ], [ -43.766727126, -22.895267783000012 ], [ -43.751619126, -22.888735837 ], [ -43.750715072, -22.887756535 ], [ -43.752197855, -22.880583995 ], [ -43.748227114, -22.877933194 ], [ -43.741266253, -22.877128515 ], [ -43.734345208, -22.878325354 ], [ -43.726890306, -22.873039085 ], [ -43.717600763, -22.872487205 ], [ -43.711530135, -22.866775348000012 ], [ -43.706524137, -22.868613199 ], [ -43.697379621, -22.864735398 ], [ -43.689720869, -22.865241176 ], [ -43.681053394, -22.862677398 ], [ -43.676983178, -22.865506169 ], [ -43.672983846, -22.863833767 ], [ -43.669996909, -22.865255007 ], [ -43.665134892, -22.865154949 ], [ -43.658352621, -22.863268494 ], [ -43.649553206, -22.857132688 ], [ -43.644130926, -22.855733432 ], [ -43.623480645, -22.862814087 ], [ -43.59656214, -22.857756978000012 ], [ -43.592943914, -22.860499291 ], [ -43.588465965, -22.838693115 ], [ -43.559386906, -22.828884737 ], [ -43.521804683, -22.822547868 ], [ -43.490062317, -22.815514928 ], [ -43.482420575, -22.830431704 ], [ -43.458131408, -22.849037118 ], [ -43.42699044, -22.836880602 ], [ -43.424087853, -22.83246446 ], [ -43.421801943, -22.83246446 ], [ -43.414860221, -22.821221016 ], [ -43.410861321, -22.820162722 ], [ -43.407761624, -22.821171501 ], [ -43.390237659, -22.81366098 ], [ -43.387806206, -22.814799363 ], [ -43.384852541, -22.813997694 ], [ -43.382871111, -22.811879811 ], [ -43.376840118, -22.810816605 ], [ -43.375765541, -22.808499725 ], [ -43.369986765, -22.805282794 ], [ -43.361634723, -22.80443184400001 ], [ -43.357614343, -22.802619565 ], [ -43.34846477, -22.803769271 ], [ -43.328911832, -22.802638317 ], [ -43.325048854, -22.801105388 ], [ -43.320690316, -22.801622988 ], [ -43.310477898, -22.799889472 ], [ -43.305049781, -22.800804625000012 ] ] ], [ [ [ -43.157683032, -22.799890076 ], [ -43.157333995, -22.800125798 ], [ -43.157497612, -22.800336924 ], [ -43.157839455, -22.800288589 ], [ -43.157683032, -22.799890076 ] ] ], [ [ [ -43.168790739, -22.799762081000015 ], [ -43.168476449, -22.800239293 ], [ -43.1692805, -22.800682654 ], [ -43.169318414, -22.80005449 ], [ -43.168790739, -22.799762081000015 ] ] ], [ [ [ -43.123208912, -22.799187236 ], [ -43.123733327, -22.799298229 ], [ -43.123557581, -22.797784027 ], [ -43.122715336, -22.799013548 ], [ -43.123208912, -22.799187236 ] ] ], [ [ [ -43.112007918, -22.797003446 ], [ -43.113438615, -22.797311701 ], [ -43.113774411, -22.796394966 ], [ -43.111675539, -22.795700173 ], [ -43.112007918, -22.797003446 ] ] ], [ [ [ -43.120956951, -22.796254025 ], [ -43.122420214, -22.79714077 ], [ -43.12275289, -22.796356908 ], [ -43.121198305, -22.79569943200001 ], [ -43.120956951, -22.796254025 ] ] ], [ [ [ -43.155821023, -22.794624566000014 ], [ -43.155744817, -22.794690541 ], [ -43.155775287, -22.794723953 ], [ -43.155857776, -22.79466246 ], [ -43.155821023, -22.794624566000014 ] ] ], [ [ [ -43.155461297, -22.794592465 ], [ -43.155471754, -22.794644261 ], [ -43.155534072, -22.794630956 ], [ -43.155480725, -22.794628863 ], [ -43.155461297, -22.794592465 ] ] ], [ [ [ -43.155937531, -22.794336855 ], [ -43.155871093, -22.79438384 ], [ -43.155945474, -22.794512534 ], [ -43.156016704, -22.794403891 ], [ -43.155937531, -22.794336855 ] ] ], [ [ [ -43.154890389, -22.794208429 ], [ -43.154934957, -22.794198111 ], [ -43.15494344, -22.79417462100001 ], [ -43.154889102, -22.794173746 ], [ -43.154890389, -22.794208429 ] ] ], [ [ [ -43.154986934, -22.794120369 ], [ -43.154934559, -22.794097350000012 ], [ -43.154876439, -22.794115638 ], [ -43.154941187, -22.794169473 ], [ -43.154986934, -22.794120369 ] ] ], [ [ [ -43.15482263, -22.79411772300001 ], [ -43.154845922, -22.794124493 ], [ -43.154864779, -22.794113335 ], [ -43.154816558, -22.79409111 ], [ -43.15482263, -22.79411772300001 ] ] ], [ [ [ -43.155799551, -22.79404525 ], [ -43.155817073, -22.79404086900001 ], [ -43.15580684, -22.79402268 ], [ -43.155798616, -22.794028249 ], [ -43.155799551, -22.79404525 ] ] ], [ [ [ -43.154986934, -22.794120369 ], [ -43.155621743, -22.794645531 ], [ -43.155766033, -22.794586957 ], [ -43.155963903, -22.79461202 ], [ -43.155761107, -22.794540616 ], [ -43.15576506, -22.793395592 ], [ -43.154986934, -22.794120369 ] ] ], [ [ [ -43.155696392, -22.792077674 ], [ -43.15575045, -22.792094614 ], [ -43.155772875, -22.792063602 ], [ -43.15576136, -22.792047154 ], [ -43.155696392, -22.792077674 ] ] ], [ [ [ -43.155420131, -22.791986866 ], [ -43.15545, -22.792079187 ], [ -43.15553946, -22.792036293 ], [ -43.155510502, -22.791986538000014 ], [ -43.155420131, -22.791986866 ] ] ], [ [ [ -43.155503668, -22.791943904 ], [ -43.155527072, -22.791966138 ], [ -43.155585225, -22.791937983 ], [ -43.155541085, -22.791915508 ], [ -43.155503668, -22.791943904 ] ] ], [ [ [ -43.155515919, -22.791903718 ], [ -43.155539291, -22.791903988 ], [ -43.155540104, -22.791897905 ], [ -43.155517636, -22.791884784 ], [ -43.155515919, -22.791903718 ] ] ], [ [ [ -43.15565543, -22.791894867 ], [ -43.155616607, -22.791917755 ], [ -43.155696183, -22.791948876 ], [ -43.155702975, -22.791884435 ], [ -43.15565543, -22.791894867 ] ] ], [ [ [ -43.155544306, -22.791896327 ], [ -43.155607959, -22.791899809 ], [ -43.155621843, -22.791858787 ], [ -43.155539157, -22.791838611 ], [ -43.155544306, -22.791896327 ] ] ], [ [ [ -43.15548463, -22.791840402000012 ], [ -43.155510184, -22.791841375 ], [ -43.155520692, -22.791820512 ], [ -43.155488456, -22.791827585 ], [ -43.15548463, -22.791840402000012 ] ] ], [ [ [ -43.15578003, -22.791851096 ], [ -43.155820543, -22.791836830000012 ], [ -43.155803878, -22.791809271 ], [ -43.15577205, -22.791811008 ], [ -43.15578003, -22.791851096 ] ] ], [ [ [ -43.155386095, -22.791764084 ], [ -43.155408405, -22.791757478 ], [ -43.155370208, -22.7917337 ], [ -43.155372894, -22.791754322 ], [ -43.155386095, -22.791764084 ] ] ], [ [ [ -43.155700194, -22.791760853 ], [ -43.155733592, -22.791700838 ], [ -43.155693859, -22.791681160000014 ], [ -43.155669902, -22.791700102 ], [ -43.155700194, -22.791760853 ] ] ], [ [ [ -43.103840686, -22.790687939 ], [ -43.104582499, -22.791273876 ], [ -43.104631297, -22.791985042 ], [ -43.105042392, -22.791026586000012 ], [ -43.103840686, -22.790687939 ] ] ], [ [ [ -43.15220881, -22.790358016 ], [ -43.152349747, -22.790395186 ], [ -43.152228418999989, -22.790181364 ], [ -43.152151074, -22.790284758 ], [ -43.15220881, -22.790358016 ] ] ], [ [ [ -43.104856637, -22.790282007 ], [ -43.105779428, -22.791479449 ], [ -43.106585195, -22.79138472 ], [ -43.105311641, -22.79016975 ], [ -43.104856637, -22.790282007 ] ] ], [ [ [ -43.101457235, -22.789927862 ], [ -43.10158989, -22.789814762 ], [ -43.100932991, -22.789357596 ], [ -43.10089724, -22.789604326 ], [ -43.101457235, -22.789927862 ] ] ], [ [ [ -43.151387449, -22.789281913 ], [ -43.151218547, -22.789699942 ], [ -43.15181662, -22.790722683 ], [ -43.151973927, -22.790229258 ], [ -43.151387449, -22.789281913 ] ] ], [ [ [ -43.149223893, -22.788893896 ], [ -43.148671912, -22.789028272 ], [ -43.148589099, -22.789455982 ], [ -43.149344733, -22.789494462 ], [ -43.149223893, -22.788893896 ] ] ], [ [ [ -43.099112721, -22.788574122 ], [ -43.100277725, -22.789317192 ], [ -43.100576869, -22.788961443 ], [ -43.099490672, -22.788252276 ], [ -43.099112721, -22.788574122 ] ] ], [ [ [ -43.149554082, -22.786654404 ], [ -43.148616472, -22.787046548 ], [ -43.151563136, -22.787580106000011 ], [ -43.151068336, -22.786919487 ], [ -43.149554082, -22.786654404 ] ] ], [ [ [ -43.137828695, -22.782653314 ], [ -43.137159211, -22.782936274 ], [ -43.137479133, -22.783301583 ], [ -43.138351217, -22.783044828 ], [ -43.137828695, -22.782653314 ] ] ], [ [ [ -43.140447561, -22.781712404 ], [ -43.140400442, -22.782152524 ], [ -43.140503289, -22.782214387 ], [ -43.140892512, -22.781905606 ], [ -43.140447561, -22.781712404 ] ] ], [ [ [ -43.105494149, -22.776740611 ], [ -43.105751689, -22.777776982999988 ], [ -43.106999933, -22.776927292 ], [ -43.106138437, -22.776493730000013 ], [ -43.105494149, -22.776740611 ] ] ], [ [ [ -43.13761342, -22.77602395700001 ], [ -43.137676489, -22.776688031 ], [ -43.138176588, -22.77660785 ], [ -43.13817893, -22.777323711 ], [ -43.138521899, -22.777270622 ], [ -43.138680598, -22.776497386000013 ], [ -43.13761342, -22.77602395700001 ] ] ], [ [ [ -43.141004258, -22.775850591 ], [ -43.139587641, -22.776058754 ], [ -43.139156245, -22.776890926 ], [ -43.141585729, -22.776605439 ], [ -43.141004258, -22.775850591 ] ] ], [ [ [ -43.172231498, -22.775648679 ], [ -43.171302077, -22.776984117 ], [ -43.173211029, -22.779173779 ], [ -43.170583483, -22.78284157 ], [ -43.167987286, -22.782419799 ], [ -43.169258052, -22.780884591 ], [ -43.166665828, -22.779238694000011 ], [ -43.1668451, -22.777465517 ], [ -43.164492496, -22.776978638 ], [ -43.156655935, -22.779071503 ], [ -43.15553547, -22.784138966 ], [ -43.157453622, -22.787398129 ], [ -43.169170633, -22.793163407000012 ], [ -43.175211212, -22.801180744 ], [ -43.178352131, -22.8020611 ], [ -43.177280025, -22.810644783 ], [ -43.174946447, -22.812537867 ], [ -43.176509003, -22.815431485 ], [ -43.174984612, -22.819743126 ], [ -43.169840821, -22.821730562 ], [ -43.16545462, -22.820064965 ], [ -43.163794951, -22.822481761 ], [ -43.168185571, -22.824733831 ], [ -43.170190652, -22.831243975 ], [ -43.173701859, -22.831161836 ], [ -43.174674167, -22.82924414 ], [ -43.173038983, -22.82871822 ], [ -43.172646154, -22.82529703 ], [ -43.175526642, -22.823778011 ], [ -43.176761769, -22.825100116 ], [ -43.17581582, -22.827217735 ], [ -43.184737307, -22.833584129 ], [ -43.184564247, -22.830055504 ], [ -43.189641796, -22.828721792 ], [ -43.187715611, -22.826620307 ], [ -43.191122272, -22.820309797 ], [ -43.196447205, -22.818852863 ], [ -43.203937595, -22.820208563 ], [ -43.20675803, -22.818305588000012 ], [ -43.208594324, -22.818643798 ], [ -43.210696279, -22.818059836 ], [ -43.209067518, -22.818348514 ], [ -43.208399904, -22.816229981 ], [ -43.209746482, -22.817166935 ], [ -43.210223132, -22.81565259500001 ], [ -43.214521117, -22.817760371 ], [ -43.216816984, -22.817180791000013 ], [ -43.221144805, -22.8195887 ], [ -43.220910397, -22.820993207 ], [ -43.222399673, -22.819000223 ], [ -43.226718852, -22.820662756 ], [ -43.237654536, -22.832738069 ], [ -43.241554337, -22.833942782 ], [ -43.247531532, -22.831071016 ], [ -43.248824915, -22.828787785 ], [ -43.251509939, -22.828532107 ], [ -43.251760963, -22.826055361 ], [ -43.250005344, -22.825411983 ], [ -43.249996692, -22.823717356 ], [ -43.258655031000011, -22.819602198 ], [ -43.265675295, -22.812849803 ], [ -43.264245913, -22.808299751 ], [ -43.260327518, -22.804192513 ], [ -43.261741841, -22.803509935 ], [ -43.256688128, -22.79740079 ], [ -43.252203658, -22.797321094 ], [ -43.244848321, -22.791868026 ], [ -43.233884253, -22.79157067200001 ], [ -43.228607621, -22.787544857000011 ], [ -43.228780787, -22.784394442000014 ], [ -43.230882139, -22.784383796 ], [ -43.227720485, -22.783587403 ], [ -43.219314552, -22.785151501 ], [ -43.212979812, -22.789135003 ], [ -43.207690096, -22.794989462 ], [ -43.204129544, -22.795412293 ], [ -43.198247633, -22.793621656 ], [ -43.19442299, -22.795113101 ], [ -43.19174826, -22.794580501 ], [ -43.19267541, -22.796327159 ], [ -43.191365316, -22.796469195000011 ], [ -43.188584059, -22.794569502 ], [ -43.189417296, -22.792510045 ], [ -43.18834249, -22.788481108 ], [ -43.191619666, -22.787760012 ], [ -43.19033499, -22.787846888000015 ], [ -43.189400125, -22.78318581 ], [ -43.185668245, -22.784698017 ], [ -43.182855763, -22.781480504 ], [ -43.181933236, -22.783448301 ], [ -43.179222906, -22.783416604 ], [ -43.176735181, -22.781204426 ], [ -43.17574042, -22.777167729 ], [ -43.172231498, -22.775648679 ] ] ], [ [ [ -43.160028213, -22.770044293000012 ], [ -43.156147214, -22.773215878 ], [ -43.153635712, -22.773085159000011 ], [ -43.15279326, -22.771686695 ], [ -43.152057122, -22.77414138200001 ], [ -43.154435116, -22.775436627 ], [ -43.159840906, -22.775495003 ], [ -43.160235884, -22.771868425 ], [ -43.16232948, -22.771614143000011 ], [ -43.160028213, -22.770044293000012 ] ] ], [ [ [ -43.114608725, -22.769518898000019 ], [ -43.114413989, -22.769667777 ], [ -43.115340697, -22.770424691 ], [ -43.115125669, -22.76970531 ], [ -43.114608725, -22.769518898000019 ] ] ], [ [ [ -43.11677797, -22.768870289 ], [ -43.116379992, -22.769219668 ], [ -43.117101035, -22.769470225 ], [ -43.117158824, -22.769186234 ], [ -43.11677797, -22.768870289 ] ] ], [ [ [ -43.168995241, -22.76877854 ], [ -43.169048149, -22.768767862000011 ], [ -43.168967937, -22.768695465 ], [ -43.168943186, -22.768725276 ], [ -43.168995241, -22.76877854 ] ] ], [ [ [ -43.16862888, -22.768156928 ], [ -43.16871582, -22.768091145 ], [ -43.168601313, -22.767972966 ], [ -43.168576853, -22.768006076 ], [ -43.16862888, -22.768156928 ] ] ], [ [ [ -43.167698612, -22.768033149 ], [ -43.167516411, -22.768732927 ], [ -43.168038453, -22.769089857 ], [ -43.168466637, -22.768461561 ], [ -43.167698612, -22.768033149 ] ] ], [ [ [ -43.168525478, -22.767795515 ], [ -43.168363262, -22.767802929 ], [ -43.168281954, -22.767896602 ], [ -43.168465762, -22.767920971 ], [ -43.168525478, -22.767795515 ] ] ], [ [ [ -43.168264448, -22.767697593000012 ], [ -43.168219508, -22.767765713 ], [ -43.168318801, -22.767674102 ], [ -43.168312331, -22.767559017 ], [ -43.168264448, -22.767697593000012 ] ] ], [ [ [ -43.169151517, -22.767551285 ], [ -43.169139762, -22.767712603 ], [ -43.169365248, -22.76776342 ], [ -43.169411597, -22.767589581 ], [ -43.169151517, -22.767551285 ] ] ], [ [ [ -43.167852095, -22.76755188 ], [ -43.16776036, -22.767676967 ], [ -43.168044199, -22.767704341 ], [ -43.168018193, -22.767403531 ], [ -43.167852095, -22.76755188 ] ] ], [ [ [ -43.16873633, -22.767617414000011 ], [ -43.168895955, -22.767504235 ], [ -43.168743401, -22.76738747400001 ], [ -43.168633409, -22.767530903 ], [ -43.16873633, -22.767617414000011 ] ] ], [ [ [ -43.168505509, -22.767490558 ], [ -43.168674794, -22.76740346 ], [ -43.168657724, -22.767332774 ], [ -43.168525179, -22.767366498000012 ], [ -43.168505509, -22.767490558 ] ] ], [ [ [ -43.168270234, -22.767264913000012 ], [ -43.168340399, -22.767256444 ], [ -43.168367106, -22.76720481 ], [ -43.168267222, -22.767190679 ], [ -43.168270234, -22.767264913000012 ] ] ], [ [ [ -43.168844557, -22.767306612 ], [ -43.169011105, -22.767574192000012 ], [ -43.169200969, -22.767444664 ], [ -43.169122965, -22.767141 ], [ -43.168844557, -22.767306612 ] ] ], [ [ [ -43.169100749, -22.767035937 ], [ -43.169127268, -22.76704013 ], [ -43.169172382, -22.767013424 ], [ -43.169104064, -22.766997084 ], [ -43.169100749, -22.767035937 ] ] ], [ [ [ -43.168914147, -22.767079168 ], [ -43.168973643, -22.767022811 ], [ -43.168918569, -22.766957362 ], [ -43.168864632, -22.767016375000015 ], [ -43.168914147, -22.767079168 ] ] ], [ [ [ -43.169207568, -22.766996975 ], [ -43.169230445, -22.766959643 ], [ -43.169184469, -22.766946152 ], [ -43.169175472, -22.766991421 ], [ -43.169207568, -22.766996975 ] ] ], [ [ [ -43.169119381, -22.766897242 ], [ -43.169234886, -22.766836342 ], [ -43.169230104, -22.766775359 ], [ -43.169138841, -22.766801536000013 ], [ -43.169119381, -22.766897242 ] ] ], [ [ [ -43.168713609, -22.766802784 ], [ -43.16875325, -22.766766940000011 ], [ -43.168682533, -22.766720757000012 ], [ -43.168662627, -22.766745159 ], [ -43.168713609, -22.766802784 ] ] ], [ [ [ -43.169089747, -22.766705984 ], [ -43.16917937, -22.766697937 ], [ -43.169173398, -22.766621384 ], [ -43.169089507, -22.766619125 ], [ -43.169089747, -22.766705984 ] ] ], [ [ [ -43.10175813, -22.762473654 ], [ -43.101526446, -22.762939019 ], [ -43.102150601, -22.763278229000015 ], [ -43.102301471, -22.76284529 ], [ -43.10175813, -22.762473654 ] ] ], [ [ [ -43.11766998600001, -22.753765994 ], [ -43.114541776, -22.756370003000011 ], [ -43.120082036, -22.758457761 ], [ -43.120901408, -22.756485162 ], [ -43.11766998600001, -22.753765994 ] ] ], [ [ [ -43.105584051, -22.748659121 ], [ -43.101809307, -22.75199793 ], [ -43.107061771, -22.755088893 ], [ -43.108476835, -22.757799793 ], [ -43.106914295, -22.763227577 ], [ -43.102713725, -22.763390445 ], [ -43.102478735, -22.765091377 ], [ -43.108243217, -22.769989497000012 ], [ -43.114350106, -22.7676654 ], [ -43.110690893, -22.766311481 ], [ -43.110168149, -22.764685614 ], [ -43.111648809, -22.760813676 ], [ -43.109947882, -22.758663021 ], [ -43.112813522, -22.754069864 ], [ -43.109164686, -22.751788190000013 ], [ -43.109398385, -22.748955071000012 ], [ -43.107265336, -22.749760114 ], [ -43.105584051, -22.748659121 ] ] ], [ [ [ -43.127116627, -22.746054529 ], [ -43.12564261, -22.746582112 ], [ -43.124099922, -22.748321419 ], [ -43.126104786, -22.74722078600001 ], [ -43.128792183, -22.74803248100001 ], [ -43.128980861, -22.746581225 ], [ -43.127116627, -22.746054529 ] ] ] ] } }
]
}
